APRIZESAT 2             
1 28366U 04025A   26162.43999067  .00000128  00000+0  53220-4 0  9996
2 28366  98.1009 328.7459 0104261 267.4084  91.5166 14.38033580150815
SAUDICOMSAT 1           
1 28369U 04025D   26162.58529446  .00000347  00000+0  90498-4 0  9996
2 28369  98.5772 172.5656 0032983  42.4295 317.9442 14.55469322163316
SAUDICOMSAT 2           
1 28370U 04025E   26162.53558358  .00000232  00000+0  71612-4 0  9997
2 28370  98.6642 174.6218 0054137 276.9929  82.5109 14.49978070159289
APRIZESAT 1             
1 28372U 04025G   26162.57420999  .00000186  00000+0  57902-4 0  9996
2 28372  98.6304 173.1470 0044760 170.7312 189.4718 14.51774194161097
NANOSAT-1               
1 28493U 04049B   26162.62578745  .00000889  00000+0  12439-3 0  9990
2 28493  98.2269 299.1510 0003106 326.4943  33.6071 14.80148688154628
SAUDICOMSAT 7           
1 31119U 07012C   26162.65287301  .00000399  00000+0  80795-4 0  9997
2 31119  98.3776 136.6714 0054929 212.7114 147.0683 14.66105114 21621
SAUDICOMSAT 6           
1 31121U 07012E   26162.48038059  .00000564  00000+0  11743-3 0  9995
2 31121  98.4097 129.8907 0071470 345.6565  14.2606 14.62551445 19350
SAUDICOMSAT 5           
1 31124U 07012H   26162.49772894  .00000469  00000+0  89312-4 0  9993
2 31124  98.3486 137.2615 0048171 142.2385 218.2215 14.68149330 22769
SAUDICOMSAT 3           
1 31125U 07012J   26162.67228963  .00000753  00000+0  13083-3 0  9994
2 31125  98.3141 137.9884 0040440  70.1335 290.4222 14.70696623 24013
SAUDICOMSAT 4           
1 31127U 07012L   26161.86895636  .00000444  00000+0  91468-4 0  9994
2 31127  98.3979 134.3105 0062067 278.3986  81.0183 14.64505997 20364
APRIZESAT 4             
1 35684U 09041D   26162.66021311  .00000587  00000+0  76694-4 0  9992
2 35684  98.1412 237.8705 0042781 341.2678  18.6959 14.83872135910547
APRIZESAT 3             
1 35686U 09041F   26162.68206601  .00001262  00000+0  11338-3 0  9997
2 35686  98.2053 315.6426 0062751  85.4433 275.3951 14.96224476915554
S-NET D                 
1 43186U 18014G   26162.65593772  .00004515  00000+0  23421-3 0  9996
2 43186  97.5371  67.4814 0009456  47.1096 313.0929 15.16621270457922
S-NET B                 
1 43187U 18014H   26162.66728360  .00004839  00000+0  25093-3 0  9997
2 43187  97.5378  67.4790 0009962  42.4903 317.7099 15.16591649457925
S-NET A                 
1 43188U 18014J   26162.65484464  .00004438  00000+0  23021-3 0  9995
2 43188  97.5388  67.6743 0009851  43.3377 316.8629 15.16628924457925
S-NET C                 
1 43189U 18014K   26162.67113179  .00004973  00000+0  25777-3 0  9994
2 43189  97.5404  67.7643 0011029  35.4781 324.7183 15.16583570456475
SALSAT                  
1 46495U 20068K   26162.58556220  .00006923  00000+0  24314-3 0  9990
2 46495  97.8849 165.3093 0008526 331.4069  28.6701 15.29719030314503
OOV-CUBE (TUBSAT-30)    
1 60240U 24128F   26162.59923854  .00001977  00000+0  15980-3 0  9990
2 60240  61.9950 245.0577 0045327 132.4986 227.9949 15.02751187105272
LPNTSAT-001 (IOD-1)     
1 68408U 26065A   26162.60745465  .00002832  00000+0  14005-3 0  9996
2 68408  97.4031  43.2353 0017269  29.4957 330.7247 15.18509269 11412
